NORAD_CAT_ID,OBJECT_NAME,OBJECT_TYPE,EPOCH,MEAN_MOTION,ECCENTRICITY,INCLINATION,RA_OF_ASC_NODE,ARG_OF_PERICENTER,MEAN_ANOMALY,BSTAR,MEAN_MOTION_DOT,MEAN_MOTION_DDOT,TLE_LINE0,TLE_LINE1,TLE_LINE2,SEMIMAJOR_AXIS,PERIOD,APOGEE,PERIGEE,DECAYED
53994.0,STARLINK-5125,PAYLOAD,2023-03-22 06:18:50,15.08858312,0.0001135,53.2163,37.6872,105.3851,254.7267,0.00091035,0.00014237,0.0,0 STARLINK-5125,1 53994U 22125AG  23081.26308093  .00014237  00000-0  91035-3 0  9995,2 53994  53.2163  37.6872 0001135 105.3851 254.7267 15.08858312 25908,6917.824,95.436,540.475,538.904,0.0
53994.0,STARLINK-5125,PAYLOAD,2023-03-23 02:58:51,15.08849924,0.000137,53.2167,33.8212,96.2171,263.8977,0.00038353,5.823e-05,0.0,0 STARLINK-5125,1 53994U 22125AG  23082.12420163  .00005823  00000-0  38353-3 0  9999,2 53994  53.2167  33.8212 0001370  96.2171 263.8977 15.08849924 26103,6917.85,95.437,540.663,538.767,0.0
53994.0,STARLINK-5125,PAYLOAD,2023-03-23 06:09:37,15.0885604,0.0001325,53.2163,33.2246,88.4958,271.6186,0.0012069,0.0001898,0.0,0 STARLINK-5125,1 53994U 22125AG  23082.25668089  .00018980  00000-0  12069-2 0  9997,2 53994  53.2163  33.2246 0001325  88.4958 271.6186 15.08856040 26056,6917.831,95.437,540.613,538.78,0.0
53994.0,STARLINK-5125,PAYLOAD,2023-03-24 02:49:37,15.08853554,6.65e-05,53.2163,29.3604,110.627,249.4794,0.00086253,0.00013471,0.0,0 STARLINK-5125,1 53994U 22125AG  23083.11779684  .00013471  00000-0  86253-3 0  9994,2 53994  53.2163  29.3604 0000665 110.6270 249.4794 15.08853554 26258,6917.839,95.437,540.164,539.244,0.0
53994.0,STARLINK-5125,PAYLOAD,2023-03-25 02:40:24,15.0885619,0.0001166,53.2174,24.9011,69.5056,290.6061,0.00096141,0.00015053,0.0,0 STARLINK-5125,1 53994U 22125AG  23084.11139027  .00015053  00000-0  96141-3 0  9991,2 53994  53.2174  24.9011 0001166  69.5056 290.6061 15.08856190 26405,6917.831,95.437,540.503,538.889,0.0
53994.0,STARLINK-5125,PAYLOAD,2023-03-25 05:51:10,15.08862668,0.0001206,53.2169,24.3049,70.979,289.1333,0.0010526,0.00016514,0.0,0 STARLINK-5125,1 53994U 22125AG  23084.24386788  .00016514  00000-0  10526-2 0  9998,2 53994  53.2169  24.3049 0001206  70.9790 289.1333 15.08862668 26356,6917.811,95.436,540.51,538.842,0.0
53994.0,STARLINK-5125,PAYLOAD,2023-03-26 02:31:12,15.08821123,0.0001317,53.2172,20.4421,69.2947,290.8186,0.00054051,8.32e-05,0.0,0 STARLINK-5125,1 53994U 22125AG  23085.10500227  .00008320  00000-0  54051-3 0  9998,2 53994  53.2172  20.4421 0001317  69.2947 290.8186 15.08821123 26557,6917.938,95.439,540.714,538.892,0.0
53994.0,STARLINK-5125,PAYLOAD,2023-03-27 03:57:22,15.08852652,0.0001322,53.2175,15.6843,68.2806,291.8327,0.0011088,0.00017409,0.0,0 STARLINK-5125,1 53994U 22125AG  23086.16484660  .00017409  00000-0  11088-2 0  9997,2 53994  53.2175  15.6843 0001322  68.2806 291.8327 15.08852652 26710,6917.842,95.437,540.621,538.792,0.0
53994.0,STARLINK-5125,PAYLOAD,2023-03-27 18:15:50,15.08847283,0.0001431,53.218,13.0106,90.7928,269.3228,0.00025098,3.709e-05,0.0,0 STARLINK-5125,1 53994U 22125AG  23086.76100415  .00003709  00000-0  25098-3 0  9991,2 53994  53.2180  13.0106 0001431  90.7928 269.3228 15.08847283 26800,6917.858,95.437,540.713,538.733,0.0
53994.0,STARLINK-5125,PAYLOAD,2023-03-28 05:23:32,15.08856786,0.0001099,53.2171,10.9254,69.4007,290.7103,0.00048224,7.399e-05,0.0,0 STARLINK-5125,1 53994U 22125AG  23087.22467946  .00007399  00000-0  48224-3 0  9993,2 53994  53.2171  10.9254 0001099  69.4007 290.7103 15.08856786 26809,6917.829,95.436,540.454,538.934,0.0
53994.0,STARLINK-5125,PAYLOAD,2023-03-29 00:28:10,15.08844315,0.000138,53.2175,7.3574,70.4177,289.6964,7.6151e-07,-2.76e-06,0.0,0 STARLINK-5125,1 53994U 22125AG  23088.01956186 -.00000276  00000-0  76151-6 0  9991,2 53994  53.2175   7.3574 0001380  70.4177 289.6964 15.08844315 26998,6917.867,95.437,540.687,538.778,0.0
53994.0,STARLINK-5125,PAYLOAD,2023-03-29 02:03:33,15.08850419,0.0001376,53.2183,7.0631,70.8583,289.2558,0.00016115,2.278e-05,0.0,0 STARLINK-5125,1 53994U 22125AG  23088.08580075  .00002278  00000-0  16115-3 0  9992,2 53994  53.2183   7.0631 0001376  70.8583 289.2558 15.08850419 26939,6917.849,95.437,540.665,538.762,0.0
53994.0,STARLINK-5125,PAYLOAD,2023-03-30 01:54:20,15.08841978,9.23e-05,53.2172,2.5997,61.8652,298.2433,9.0841e-05,1.158e-05,0.0,0 STARLINK-5125,1 53994U 22125AG  23089.07940337  .00001158  00000-0  90841-4 0  9998,2 53994  53.2172   2.5997 0000923  61.8652 298.2433 15.08841978 27153,6917.874,95.437,540.378,539.101,0.0
53994.0,STARLINK-5125,PAYLOAD,2023-03-30 11:26:39,15.08834809,0.0001004,53.2176,0.8157,67.9501,292.1597,1.3551e-05,-7.2e-07,0.0,0 STARLINK-5125,1 53994U 22125AG  23089.47684734 -.00000072  00000-0  13551-4 0  9996,2 53994  53.2176   0.8157 0001004  67.9501 292.1597 15.08834809 27213,6917.896,95.438,540.456,539.067,0.0
53994.0,STARLINK-5125,PAYLOAD,2023-03-31 03:20:30,15.0885289,8.87e-05,53.2175,357.8424,69.6483,290.4604,0.00039585,6.02e-05,0.0,0 STARLINK-5125,1 53994U 22125AG  23090.13924284  .00006020  00000-0  39585-3 0  9990,2 53994  53.2175 357.8424 0000887  69.6483 290.4604 15.08852890 27311,6917.841,95.437,540.32,539.092,0.0
53994.0,STARLINK-5125,PAYLOAD,2023-03-31 17:38:59,15.08841926,8.36e-05,53.2177,355.1665,66.0529,294.055,0.00023323,3.426e-05,0.0,0 STARLINK-5125,1 53994U 22125AG  23090.73541077  .00003426  00000-0  23323-3 0  9991,2 53994  53.2177 355.1665 0000836  66.0529 294.0550 15.08841926 27405,6917.875,95.437,540.318,539.161,0.0
53994.0,STARLINK-5125,PAYLOAD,2023-04-01 03:11:17,15.08860856,9.31e-05,53.2172,353.3803,88.0354,272.0745,0.00053915,8.308e-05,0.0,0 STARLINK-5125,1 53994U 22125AG  23091.13284221  .00008308  00000-0  53915-3 0  9995,2 53994  53.2172 353.3803 0000931  88.0354 272.0745 15.08860856 27461,6917.817,95.436,540.326,539.038,0.0
53994.0,STARLINK-5125,PAYLOAD,2023-04-01 04:46:40,15.08867984,8.06e-05,53.2175,353.0848,71.4446,288.6634,0.00065049,0.00010088,0.0,0 STARLINK-5125,1 53994U 22125AG  23091.19907736  .00010088  00000-0  65049-3 0  9993,2 53994  53.2175 353.0848 0000806  71.4446 288.6634 15.08867984 27402,6917.795,95.436,540.217,539.102,0.0
53994.0,STARLINK-5125,PAYLOAD,2023-04-01 23:51:19,15.08830752,0.000113,53.2186,349.5173,98.6036,261.5084,-0.00012221,-2.232e-05,0.0,0 STARLINK-5125,1 53994U 22125AG  23091.99397544 -.00002232  00000-0 -12221-3 0  9999,2 53994  53.2186 349.5173 0001130  98.6036 261.5084 15.08830752 27594,6917.909,95.438,540.555,538.992,0.0
53994.0,STARLINK-5125,PAYLOAD,2023-04-02 20:31:20,15.08849273,9.98e-05,53.2181,345.65,74.8497,285.2605,0.0007604,0.00011838,0.0,0 STARLINK-5125,1 53994U 22125AG  23092.85509702  .00011838  00000-0  76040-3 0  9995,2 53994  53.2181 345.6500 0000998  74.8497 285.2605 15.08849273 27723,6917.852,95.437,540.407,539.027,0.0
53994.0,STARLINK-5125,PAYLOAD,2023-04-02 22:06:43,15.08856172,0.0001041,53.2181,345.3533,64.6542,295.4558,0.0010653,0.00016714,0.0,0 STARLINK-5125,1 53994U 22125AG  23092.92133703  .00016714  00000-0  10653-2 0  9992,2 53994  53.2181 345.3533 0001041  64.6542 295.4558 15.08856172 27663,6917.831,95.437,540.416,538.976,0.0
53994.0,STARLINK-5125,PAYLOAD,2023-04-03 02:52:52,15.08875844,9.47e-05,53.2175,344.4614,61.2858,298.823,0.0015481,0.0002446,0.0,0 STARLINK-5125,1 53994U 22125AG  23093.12005191  .00024460  00000-0  15481-2 0  9995,2 53994  53.2175 344.4614 0000947  61.2858 298.8230 15.08875844 27765,6917.771,95.435,540.291,538.981,0.0
53994.0,STARLINK-5125,PAYLOAD,2023-04-03 17:11:20,15.08847348,8.1e-05,53.2176,341.7858,76.5506,283.5576,0.00076566,0.00011921,0.0,0 STARLINK-5125,1 53994U 22125AG  23093.71621471  .00011921  00000-0  76566-3 0  9995,2 53994  53.2176 341.7858 0000810  76.5506 283.5576 15.08847348 27856,6917.858,95.437,540.283,539.163,0.0
53994.0,STARLINK-5125,PAYLOAD,2023-04-04 02:43:39,15.08859062,8.05e-05,53.2171,340.0014,84.0956,276.0128,0.0014602,0.0002304,0.0,0 STARLINK-5125,1 53994U 22125AG  23094.11365152  .00023040  00000-0  14602-2 0  9998,2 53994  53.2171 340.0014 0000805  84.0956 276.0128 15.08859062 27849,6917.822,95.436,540.244,539.13,0.0
53994.0,STARLINK-5125,PAYLOAD,2023-04-04 21:48:17,15.0883662,7.86e-05,53.2162,336.4333,129.0864,231.0198,0.0011195,0.00017572,0.0,0 STARLINK-5125,1 53994U 22125AG  23094.90853926  .00017572  00000-0  11195-2 0  9993,2 53994  53.2162 336.4333 0000786 129.0864 231.0198 15.08836620 27964,6917.891,95.438,540.299,539.212,0.0
53994.0,STARLINK-5125,PAYLOAD,2023-04-05 00:59:04,15.0883104,6.01e-05,53.2157,335.8383,128.6103,231.4943,0.00085122,0.00013282,0.0,0 STARLINK-5125,1 53994U 22125AG  23095.04102046  .00013282  00000-0  85122-3 0  9995,2 53994  53.2157 335.8383 0000601 128.6103 231.4943 15.08831040 28057,6917.908,95.438,540.189,539.357,0.0
53994.0,STARLINK-5125,PAYLOAD,2023-04-05 08:56:00,15.08834001,7.82e-05,53.2163,334.3527,85.3711,274.737,0.00049046,7.525e-05,0.0,0 STARLINK-5125,1 53994U 22125AG  23095.37222377  .00007525  00000-0  49046-3 0  9999,2 53994  53.2163 334.3527 0000782  85.3711 274.7370 15.08834001 28034,6917.899,95.438,540.305,539.223,0.0
53994.0,STARLINK-5125,PAYLOAD,2023-04-05 20:03:42,15.08845388,7.61e-05,53.2164,332.2711,79.352,280.7557,0.00074932,0.00011659,0.0,0 STARLINK-5125,1 53994U 22125AG  23095.83590348  .00011659  00000-0  74932-3 0  9991,2 53994  53.2164 332.2711 0000761  79.3520 280.7557 15.08845388 28107,6917.864,95.437,540.255,539.202,0.0
53994.0,STARLINK-5125,PAYLOAD,2023-04-06 02:25:14,15.08858977,8.05e-05,53.2161,331.0816,77.7787,282.3295,0.0010069,0.00015781,0.0,0 STARLINK-5125,1 53994U 22125AG  23096.10086005  .00015781  00000-0  10069-2 0  9992,2 53994  53.2161 331.0816 0000805  77.7787 282.3295 15.08858977 28210,6917.822,95.436,540.244,539.13,0.0
53994.0,STARLINK-5125,PAYLOAD,2023-04-06 15:08:19,15.08848303,0.0001004,53.2158,328.703,70.0727,290.0373,0.00033676,5.077e-05,0.0,0 STARLINK-5125,1 53994U 22125AG  23096.63078106  .00005077  00000-0  33676-3 0  9990,2 53994  53.2158 328.7030 0001004  70.0727 290.0373 15.08848303 28292,6917.855,95.437,540.415,539.025,0.0
